{
  "type": "FeatureCollection",
  "features": [
    {
      "type": "Feature",
      "properties": {
        "norad_id": 34556,
        "name": "COSMOS 2251 DEB",
        "group": "cosmos-2251-debris",
        "lat": 71.1458105245133,
        "lon": 165.8050004122945,
        "alt_km": 628.2298522508963,
        "timestamp": "2025-12-20T22:39:11.019539+00:00",
        "meta_object_name": "COSMOS 2251 DEB",
        "meta_object_id": "1993-036US",
        "meta_epoch": "2025-12-19T10:53:06.238752",
        "meta_mean_motion": 14.77997047,
        "meta_eccentricity": 0.0006967,
        "meta_inclination": 74.016,
        "meta_ra_of_asc_node": 111.6585,
        "meta_arg_of_pericenter": 172.0151,
        "meta_mean_anomaly": 261.4473,
        "meta_ephemeris_type": 0,
        "meta_classification_type": "U",
        "meta_norad_cat_id": 34556,
        "meta_element_set_no": 999,
        "meta_rev_at_epoch": 88428,
        "meta_bstar": 0.0013856,
        "meta_mean_motion_dot": 9.984e-05,
        "meta_mean_motion_ddot": 0,
        "tle_line1": "1 34556U 93036US  25353.45354443  .00009984  00000+0  13856-2 0  9998",
        "tle_line2": "2 34556  74.0160 111.6585 0006967 172.0151 261.4473 14.77997047884287"
      },
      "geometry": {
        "type": "Point",
        "coordinates": [
          165.8050004122945,
          71.1458105245133
        ]
      }
    },
    {
      "type": "Feature",
      "properties": {
        "norad_id": 34560,
        "name": "COSMOS 2251 DEB",
        "group": "cosmos-2251-debris",
        "lat": 13.79855554184618,
        "lon": -57.88478527497646,
        "alt_km": 647.0261324850899,
        "timestamp": "2025-12-20T22:39:11.019548+00:00",
        "meta_object_name": "COSMOS 2251 DEB",
        "meta_object_id": "1993-036UW",
        "meta_epoch": "2025-12-20T03:08:10.171392",
        "meta_mean_motion": 14.72311873,
        "meta_eccentricity": 0.00141017,
        "meta_inclination": 74.017,
        "meta_ra_of_asc_node": 127.7353,
        "meta_arg_of_pericenter": 209.7771,
        "meta_mean_anomaly": 327.3808,
        "meta_ephemeris_type": 0,
        "meta_classification_type": "U",
        "meta_norad_cat_id": 34560,
        "meta_element_set_no": 999,
        "meta_rev_at_epoch": 88360,
        "meta_bstar": 0.0012677918,
        "meta_mean_motion_dot": 8.005e-05,
        "meta_mean_motion_ddot": 0,
        "tle_line1": "1 34560U 93036UW  25354.13067328  .00008005  00000+0  12678-2 0  9996",
        "tle_line2": "2 34560  74.0170 127.7353 0014101 209.7771 327.3808 14.72311873883600"
      },
      "geometry": {
        "type": "Point",
        "coordinates": [
          -57.88478527497646,
          13.79855554184618
        ]
      }
    },
    {
      "type": "Feature",
      "properties": {
        "norad_id": 34563,
        "name": "COSMOS 2251 DEB",
        "group": "cosmos-2251-debris",
        "lat": -65.84569739837612,
        "lon": 48.054107995342925,
        "alt_km": 735.3255908771425,
        "timestamp": "2025-12-20T22:39:11.019557+00:00",
        "meta_object_name": "COSMOS 2251 DEB",
        "meta_object_id": "1993-036UZ",
        "meta_epoch": "2025-12-20T00:30:18.501408",
        "meta_mean_motion": 14.46530475,
        "meta_eccentricity": 0.00138969,
        "meta_inclination": 74.0369,
        "meta_ra_of_asc_node": 190.1141,
        "meta_arg_of_pericenter": 283.7366,
        "meta_mean_anomaly": 204.2441,
        "meta_ephemeris_type": 0,
        "meta_classification_type": "U",
        "meta_norad_cat_id": 34563,
        "meta_element_set_no": 999,
        "meta_rev_at_epoch": 88302,
        "meta_bstar": 0.00029395545,
        "meta_mean_motion_dot": 1.033e-05,
        "meta_mean_motion_ddot": 0,
        "tle_line1": "1 34563U 93036UZ  25354.02104747  .00001033  00000+0  29396-3 0  9994",
        "tle_line2": "2 34563  74.0369 190.1141 0013896 283.7366 204.2441 14.46530475883028"
      },
      "geometry": {
        "type": "Point",
        "coordinates": [
          48.054107995342925,
          -65.84569739837612
        ]
      }
    },
    {
      "type": "Feature",
      "properties": {
        "norad_id": 34564,
        "name": "COSMOS 2251 DEB",
        "group": "cosmos-2251-debris",
        "lat": -36.80649590398301,
        "lon": 55.20502109152995,
        "alt_km": 766.1966978542423,
        "timestamp": "2025-12-20T22:39:11.019566+00:00",
        "meta_object_name": "COSMOS 2251 DEB",
        "meta_object_id": "1993-036VA",
        "meta_epoch": "2025-12-20T15:06:55.933920",
        "meta_mean_motion": 14.40702531,
        "meta_eccentricity": 0.00193035,
        "meta_inclination": 74.0317,
        "meta_ra_of_asc_node": 223.4141,
        "meta_arg_of_pericenter": 326.2117,
        "meta_mean_anomaly": 64.2114,
        "meta_ephemeris_type": 0,
        "meta_classification_type": "U",
        "meta_norad_cat_id": 34564,
        "meta_element_set_no": 999,
        "meta_rev_at_epoch": 88120,
        "meta_bstar": 0.0001688468,
        "meta_mean_motion_dot": 5.14e-06,
        "meta_mean_motion_ddot": 0,
        "tle_line1": "1 34564U 93036VA  25354.62981405  .00000514  00000+0  16885-3 0  9997",
        "tle_line2": "2 34564  74.0317 223.4141 0019303 326.2117  64.2114 14.40702531881205"
      },
      "geometry": {
        "type": "Point",
        "coordinates": [
          55.20502109152995,
          -36.80649590398301
        ]
      }
    },
    {
      "type": "Feature",
      "properties": {
        "norad_id": 34567,
        "name": "COSMOS 2251 DEB",
        "group": "cosmos-2251-debris",
        "lat": 45.77347059021063,
        "lon": -55.08268140763473,
        "alt_km": 800.3656687794437,
        "timestamp": "2025-12-20T22:39:11.019576+00:00",
        "meta_object_name": "COSMOS 2251 DEB",
        "meta_object_id": "1993-036VD",
        "meta_epoch": "2025-12-20T12:15:53.628768",
        "meta_mean_motion": 14.24024503,
        "meta_eccentricity": 0.00742377,
        "meta_inclination": 74.0407,
        "meta_ra_of_asc_node": 142.7932,
        "meta_arg_of_pericenter": 215.4297,
        "meta_mean_anomaly": 219.0863,
        "meta_ephemeris_type": 0,
        "meta_classification_type": "U",
        "meta_norad_cat_id": 34567,
        "meta_element_set_no": 999,
        "meta_rev_at_epoch": 87235,
        "meta_bstar": 0.00017215889,
        "meta_mean_motion_dot": 3.81e-06,
        "meta_mean_motion_ddot": 0,
        "tle_line1": "1 34567U 93036VD  25354.51103737  .00000381  00000+0  17216-3 0  9993",
        "tle_line2": "2 34567  74.0407 142.7932 0074237 215.4297 219.0863 14.24024503872359"
      },
      "geometry": {
        "type": "Point",
        "coordinates": [
          -55.08268140763473,
          45.77347059021063
        ]
      }
    },
    {
      "type": "Feature",
      "properties": {
        "norad_id": 34569,
        "name": "COSMOS 2251 DEB",
        "group": "cosmos-2251-debris",
        "lat": -38.793687078288784,
        "lon": 169.95699226435318,
        "alt_km": 742.0703678786467,
        "timestamp": "2025-12-20T22:39:11.019585+00:00",
        "meta_object_name": "COSMOS 2251 DEB",
        "meta_object_id": "1993-036VF",
        "meta_epoch": "2025-12-20T12:52:07.644576",
        "meta_mean_motion": 14.2477055,
        "meta_eccentricity": 0.01576251,
        "meta_inclination": 73.9894,
        "meta_ra_of_asc_node": 184.0385,
        "meta_arg_of_pericenter": 10.6435,
        "meta_mean_anomaly": 19.9288,
        "meta_ephemeris_type": 0,
        "meta_classification_type": "U",
        "meta_norad_cat_id": 34569,
        "meta_element_set_no": 999,
        "meta_rev_at_epoch": 87079,
        "meta_bstar": 0.00031197842,
        "meta_mean_motion_dot": 8.01e-06,
        "meta_mean_motion_ddot": 0,
        "tle_line1": "1 34569U 93036VF  25354.53619959  .00000801  00000+0  31198-3 0  9997",
        "tle_line2": "2 34569  73.9894 184.0385 0157625  10.6435  19.9288 14.24770550870796"
      },
      "geometry": {
        "type": "Point",
        "coordinates": [
          169.95699226435318,
          -38.793687078288784
        ]
      }
    },
    {
      "type": "Feature",
      "properties": {
        "norad_id": 34570,
        "name": "COSMOS 2251 DEB",
        "group": "cosmos-2251-debris",
        "lat": -53.41658511204051,
        "lon": 46.825568848443325,
        "alt_km": 1022.5365059389715,
        "timestamp": "2025-12-20T22:39:11.019594+00:00",
        "meta_object_name": "COSMOS 2251 DEB",
        "meta_object_id": "1993-036VG",
        "meta_epoch": "2025-12-20T08:39:52.015680",
        "meta_mean_motion": 13.99831836,
        "meta_eccentricity": 0.01902924,
        "meta_inclination": 73.9565,
        "meta_ra_of_asc_node": 205.0284,
        "meta_arg_of_pericenter": 85.8151,
        "meta_mean_anomaly": 93.6336,
        "meta_ephemeris_type": 0,
        "meta_classification_type": "U",
        "meta_norad_cat_id": 34570,
        "meta_element_set_no": 999,
        "meta_rev_at_epoch": 85707,
        "meta_bstar": 0.00037263362,
        "meta_mean_motion_dot": 6.16e-06,
        "meta_mean_motion_ddot": 0,
        "tle_line1": "1 34570U 93036VG  25354.36101870  .00000616  00000+0  37263-3 0  9991",
        "tle_line2": "2 34570  73.9565 205.0284 0190292  85.8151  93.6336 13.99831836857076"
      },
      "geometry": {
        "type": "Point",
        "coordinates": [
          46.825568848443325,
          -53.41658511204051
        ]
      }
    }
  ]
}